<?xml version="1.0" encoding="UTF-8"?>
<kml xmlns="http://www.opengis.net/kml/2.2">
  <Document>
    <Placemark>
      <name>Silverstone Circuit</name>
      <LineString>
        <altitudeMode>absolute</altitudeMode>
        <coordinates>
          -1.023496004592915,52.0682791305414,144.6525967819629
          -1.019830128447543,52.07119829430768,150.1671797303125
          -1.01876972201569,52.07134415664211,149.9952590991023
          -1.017269282525106,52.07121244518698,151.9052034266277
          -1.016542463552719,52.07122825932527,152.0305905851272
          -1.015870069147684,52.07140083848225,152.4751135878318
          -1.013718317150093,52.07246296568587,154.0310944885692
          -1.013287107079902,52.0725350507166,153.8102213217404
          -1.013071317516454,52.07241873087544,154.1562515771411
          -1.012623624626834,52.07154769099485,155.0580407989825
          -1.012347674521078,52.07141402193572,155.2689216279713
          -1.011958212109717,52.0715205340105,155.5631005705005
          -1.011549753559144,52.07229832321701,155.7046091314662
          -1.011447246281119,52.07297332250932,154.732692690435
          -1.01151071943674,52.07309605066666,154.7200446458884
          -1.011684501782754,52.07322013638694,154.5194737588663
          -1.018526758811774,52.07700642564061,152.4449821272436
          -1.01938555505885,52.07713712517122,151.4207045637658
          -1.020024408222121,52.07687674321814,151.3353831040847
          -1.020197187696139,52.0761386587228,152.4751667361721
          -1.020740138713085,52.07581775964901,152.5069987993567
          -1.021570572343397,52.07603255451268,152.4013493429758
          -1.021586968555575,52.07654917724236,152.1458959009825
          -1.020384695049413,52.07787494022628,150.537850685179
          -1.019688622588463,52.07828098103752,151.1402998022992
          -1.018703917082977,52.07857856772953,151.1489598964246
          -1.017902554314394,52.07865638678362,151.2426733177737
          -1.012261269300879,52.07895531909693,153.7977281076318
          -1.011623852600038,52.07876721887159,153.644091023256
          -1.011136201090794,52.07840466015906,153.7827890881021
          -1.010185091176228,52.07433866550169,154.6128979185694
          -1.009923917116049,52.07393319498046,153.7976423841828
          -1.009541204641218,52.07351137375181,153.2879930066213
          -1.009664195999805,52.07307569210331,154.3747007736468
          -1.010044679674073,52.07245498112735,155.6729751713994
          -1.010123271757664,52.07210526191563,154.9372739840069
          -1.009950051286297,52.07172309235361,153.7975205291991
          -1.009403245887387,52.07127633805737,153.4232848584194
          -1.009347142648842,52.07080839531294,152.8984210646512
          -1.009740575631715,52.07046566252444,152.2778104084623
          -1.011120898125799,52.06989495123252,151.1148980757517
          -1.016666132293746,52.06387331321953,150.2291090266673
          -1.017796785335828,52.06353535166716,151.2795431942978
          -1.018759201603788,52.06380885812961,151.3464427347261
          -1.0191917669256,52.06431556611959,150.646972564397
          -1.020303843253135,52.06530970113955,146.7905725924345
          -1.021983212003847,52.06647401418978,145.9233095538468
          -1.02213218465768,52.06655504077271,145.6810582515434
          -1.022328025601322,52.06653929722122,145.6863433326911
          -1.022861912336144,52.0662508082995,146.4274461074295
          -1.023118335806911,52.06621242314149,146.6611267369475
          -1.023361653382648,52.06631695751169,146.8167683540549
          -1.023953422691803,52.06673751155101,146.578509220654
          -1.024317525266834,52.06725322390515,145.6213628434503
          -1.024313188537048,52.0675866617426,144.5634221807799
          -1.023496004592915,52.0682791305414,144.6525967819629
        </coordinates>
      </LineString>
    </Placemark>
  </Document>
</kml>
